{"type": "FeatureCollection", "features": [ {"type": "Feature", "properties": {"norad_id": 35139, "name": "FENGYUN 1C DEB", "group": "fengyun-1c-debris", "lat": 29.549702662539385, "lon": -8.367101677193675, "alt_km": 833.5020481169604, "timestamp": "2025-12-17T10:52:54.640666+00:00", "meta": {"OBJECT_NAME": "FENGYUN 1C DEB", "OBJECT_ID": "1999-025DLT", "EPOCH": "2025-12-16T06:00:54.452736", "MEAN_MOTION": 14.21099426, "ECCENTRICITY": 0.00678548, "INCLINATION": 98.5854, "RA_OF_ASC_NODE": 355.377, "ARG_OF_PERICENTER": 287.2265, "MEAN_ANOMALY": 72.1494, "EPHEMERIS_TYPE": 0, "CLASSIFICATION_TYPE": "U", "NORAD_CAT_ID": 35139, "ELEMENT_SET_NO": 999, "REV_AT_EPOCH": 64203, "BSTAR": 0.00038698718, "MEAN_MOTION_DOT": 8.17e-06, "MEAN_MOTION_DDOT": 0}, "tle": {"line1": "1 35139U 99025DLT 25350.25063024  .00000817  00000+0  38699-3 0  9996", "line2": "2 35139  98.5854 355.3770 0067854 287.2265  72.1494 14.21099426642034"}}, "geometry": {"type": "Point", "coordinates": [-8.367101677193675, 29.549702662539385]}}, {"type": "Feature", "properties": {"norad_id": 35140, "name": "FENGYUN 1C DEB", "group": "fengyun-1c-debris", "lat": 57.2697518676904, "lon": 165.9906335767518, "alt_km": 1020.2473882997747, "timestamp": "2025-12-17T10:52:54.640675+00:00", "meta": {"OBJECT_NAME": "FENGYUN 1C DEB", "OBJECT_ID": "1999-025DLU", "EPOCH": "2025-12-14T04:35:17.926080", "MEAN_MOTION": 14.21349423, "ECCENTRICITY": 0.02906296, "INCLINATION": 98.4433, "RA_OF_ASC_NODE": 329.5041, "ARG_OF_PERICENTER": 322.4095, "MEAN_ANOMALY": 35.7077, "EPHEMERIS_TYPE": 0, "CLASSIFICATION_TYPE": "U", "NORAD_CAT_ID": 35140, "ELEMENT_SET_NO": 999, "REV_AT_EPOCH": 87299, "BSTAR": 0.00031148467, "MEAN_MOTION_DOT": 9.92e-06, "MEAN_MOTION_DDOT": 0}, "tle": {"line1": "1 35140U 99025DLU 25348.19117970  .00000992  00000+0  31148-3 0  9994", "line2": "2 35140  98.4433 329.5041 0290629 322.4095  35.7077 14.21349423872990"}}, "geometry": {"type": "Point", "coordinates": [165.9906335767518, 57.2697518676904]}}, {"type": "Feature", "properties": {"norad_id": 35142, "name": "FENGYUN 1C DEB", "group": "fengyun-1c-debris", "lat": -70.79594627942141, "lon": 136.26835608936545, "alt_km": 884.8157715864663, "timestamp": "2025-12-17T10:52:54.640686+00:00", "meta": {"OBJECT_NAME": "FENGYUN 1C DEB", "OBJECT_ID": "1999-025DLW", "EPOCH": "2025-12-16T06:06:10.234368", "MEAN_MOTION": 13.90508934, "ECCENTRICITY": 0.01077729, "INCLINATION": 99.0452, "RA_OF_ASC_NODE": 342.3158, "ARG_OF_PERICENTER": 204.4667, "MEAN_ANOMALY": 168.1585, "EPHEMERIS_TYPE": 0, "CLASSIFICATION_TYPE": "U", "NORAD_CAT_ID": 35142, "ELEMENT_SET_NO": 999, "REV_AT_EPOCH": 85738, "BSTAR": 0.00020062048, "MEAN_MOTION_DOT": 2.18e-06, "MEAN_MOTION_DDOT": 0}, "tle": {"line1": "1 35142U 99025DLW 25350.25428512  .00000218  00000+0  20062-3 0  9997", "line2": "2 35142  99.0452 342.3158 0107772 204.4667 168.1585 13.90508934857382"}}, "geometry": {"type": "Point", "coordinates": [136.26835608936545, -70.79594627942141]}}, {"type": "Feature", "properties": {"norad_id": 35144, "name": "FENGYUN 1C DEB", "group": "fengyun-1c-debris", "lat": -56.46398137054766, "lon": -86.32853588622326, "alt_km": 708.6831890777075, "timestamp": "2025-12-17T10:52:54.640696+00:00", "meta": {"OBJECT_NAME": "FENGYUN 1C DEB", "OBJECT_ID": "1999-025DLY", "EPOCH": "2025-12-15T03:29:25.584864", "MEAN_MOTION": 14.59259684, "ECCENTRICITY": 0.00266192, "INCLINATION": 98.6997, "RA_OF_ASC_NODE": 104.611, "ARG_OF_PERICENTER": 353.8009, "MEAN_ANOMALY": 6.2856, "EPHEMERIS_TYPE": 0, "CLASSIFICATION_TYPE": "U", "NORAD_CAT_ID": 35144, "ELEMENT_SET_NO": 999, "REV_AT_EPOCH": 65248, "BSTAR": 0.0015089834, "MEAN_MOTION_DOT": 7.114e-05, "MEAN_MOTION_DDOT": 0}, "tle": {"line1": "1 35144U 99025DLY 25349.14543501  .00007114  00000+0  15090-2 0  9997", "line2": "2 35144  98.6997 104.6110 0026619 353.8009   6.2856 14.59259684652487"}}, "geometry": {"type": "Point", "coordinates": [-86.32853588622326, -56.46398137054766]}}, {"type": "Feature", "properties": {"norad_id": 35147, "name": "FENGYUN 1C DEB", "group": "fengyun-1c-debris", "lat": -35.08472465366424, "lon": 72.291990598408, "alt_km": 667.7042007972868, "timestamp": "2025-12-17T10:52:54.640706+00:00", "meta": {"OBJECT_NAME": "FENGYUN 1C DEB", "OBJECT_ID": "1999-025DMB", "EPOCH": "2025-12-15T23:12:44.809056", "MEAN_MOTION": 14.74400699, "ECCENTRICITY": 0.00274157, "INCLINATION": 99.4876, "RA_OF_ASC_NODE": 63.8082, "ARG_OF_PERICENTER": 189.8858, "MEAN_ANOMALY": 170.181, "EPHEMERIS_TYPE": 0, "CLASSIFICATION_TYPE": "U", "NORAD_CAT_ID": 35147, "ELEMENT_SET_NO": 999, "REV_AT_EPOCH": 74352, "BSTAR": 0.0018782203, "MEAN_MOTION_DOT": 0.00012489, "MEAN_MOTION_DDOT": 0}, "tle": {"line1": "1 35147U 99025DMB 25349.96718529  .00012489  00000+0  18782-2 0  9996", "line2": "2 35147  99.4876  63.8082 0027415 189.8858 170.1810 14.74400699743521"}}, "geometry": {"type": "Point", "coordinates": [72.291990598408, -35.08472465366424]}}, {"type": "Feature", "properties": {"norad_id": 35152, "name": "FENGYUN 1C DEB", "group": "fengyun-1c-debris", "lat": -15.425359327943838, "lon": -8.445735976351731, "alt_km": 1120.8436403321948, "timestamp": "2025-12-17T10:52:54.640716+00:00", "meta": {"OBJECT_NAME": "FENGYUN 1C DEB", "OBJECT_ID": "1999-025DMG", "EPOCH": "2025-12-16T18:13:57.032832", "MEAN_MOTION": 13.7643783, "ECCENTRICITY": 0.01945259, "INCLINATION": 99.8194, "RA_OF_ASC_NODE": 173.5777, "ARG_OF_PERICENTER": 5.0809, "MEAN_ANOMALY": 355.2255, "EPHEMERIS_TYPE": 0, "CLASSIFICATION_TYPE": "U", "NORAD_CAT_ID": 35152, "ELEMENT_SET_NO": 999, "REV_AT_EPOCH": 62248, "BSTAR": 0.00057948786, "MEAN_MOTION_DOT": 6.03e-06, "MEAN_MOTION_DDOT": 0}, "tle": {"line1": "1 35152U 99025DMG 25350.75968788  .00000603  00000+0  57949-3 0  9999", "line2": "2 35152  99.8194 173.5777 0194525   5.0809 355.2255 13.76437830622484"}}, "geometry": {"type": "Point", "coordinates": [-8.445735976351731, -15.425359327943838]}}, {"type": "Feature", "properties": {"norad_id": 35153, "name": "FENGYUN 1C DEB", "group": "fengyun-1c-debris", "lat": -78.87164745344623, "lon": 10.881111444625022, "alt_km": 772.5800526538433, "timestamp": "2025-12-17T10:52:54.640726+00:00", "meta": {"OBJECT_NAME": "FENGYUN 1C DEB", "OBJECT_ID": "1999-025DMH", "EPOCH": "2025-12-15T23:28:42.248928", "MEAN_MOTION": 14.73754659, "ECCENTRICITY": 0.01711481, "INCLINATION": 98.903, "RA_OF_ASC_NODE": 242.0971, "ARG_OF_PERICENTER": 73.1296, "MEAN_ANOMALY": 288.8599, "EPHEMERIS_TYPE": 0, "CLASSIFICATION_TYPE": "U", "NORAD_CAT_ID": 35153, "ELEMENT_SET_NO": 999, "REV_AT_EPOCH": 97265, "BSTAR": 0.00026510273, "MEAN_MOTION_DOT": 2.12e-05, "MEAN_MOTION_DDOT": 0}, "tle": {"line1": "1 35153U 99025DMH 25349.97826677  .00002120  00000+0  26510-3 0  9998", "line2": "2 35153  98.9030 242.0971 0171148  73.1296 288.8599 14.73754659972652"}}, "geometry": {"type": "Point", "coordinates": [10.881111444625022, -78.87164745344623]}}, {"type": "Feature", "properties": {"norad_id": 35154, "name": "FENGYUN 1C DEB", "group": "fengyun-1c-debris", "lat": -1.7056855911604947, "lon": 113.5126210081901, "alt_km": 720.5727837410741, "timestamp": "2025-12-17T10:52:54.640736+00:00", "meta": {"OBJECT_NAME": "FENGYUN 1C DEB", "OBJECT_ID": "1999-025DMJ", "EPOCH": "2025-12-14T01:39:24.585984", "MEAN_MOTION": 14.18900379, "ECCENTRICITY": 0.01792994, "INCLINATION": 99.4217, "RA_OF_ASC_NODE": 109.6332, "ARG_OF_PERICENTER": 38.7298, "MEAN_ANOMALY": 322.6573, "EPHEMERIS_TYPE": 0, "CLASSIFICATION_TYPE": "U", "NORAD_CAT_ID": 35154, "ELEMENT_SET_NO": 999, "REV_AT_EPOCH": 64596, "BSTAR": 0.00037357522, "MEAN_MOTION_DOT": 8.63e-06, "MEAN_MOTION_DDOT": 0}, "tle": {"line1": "1 35154U 99025DMJ 25348.06903456  .00000863  00000+0  37358-3 0  9993", "line2": "2 35154  99.4217 109.6332 0179299  38.7298 322.6573 14.18900379645960"}}, "geometry": {"type": "Point", "coordinates": [113.5126210081901, -1.7056855911604947]}}, {"type": "Feature", "properties": {"norad_id": 35155, "name": "FENGYUN 1C DEB", "group": "fengyun-1c-debris", "lat": 52.535967762798045, "lon": -165.81231592947987, "alt_km": 815.4780650889488, "timestamp": "2025-12-17T10:52:54.640746+00:00", "meta": {"OBJECT_NAME": "FENGYUN 1C DEB", "OBJECT_ID": "1999-025DMK", "EPOCH": "2025-12-13T11:32:29.448096", "MEAN_MOTION": 14.19285709, "ECCENTRICITY": 0.00260991, "INCLINATION": 98.5012, "RA_OF_ASC_NODE": 359.121, "ARG_OF_PERICENTER": 70.7543, "MEAN_ANOMALY": 289.6454, "EPHEMERIS_TYPE": 0, "CLASSIFICATION_TYPE": "U", "NORAD_CAT_ID": 35155, "ELEMENT_SET_NO": 999, "REV_AT_EPOCH": 72724, "BSTAR": 0.00090034288, "MEAN_MOTION_DOT": 1.854e-05, "MEAN_MOTION_DDOT": 0}, "tle": {"line1": "1 35155U 99025DMK 25347.48089639  .00001854  00000+0  90034-3 0  9998", "line2": "2 35155  98.5012 359.1210 0026099  70.7543 289.6454 14.19285709727245"}}, "geometry": {"type": "Point", "coordinates": [-165.81231592947987, 52.535967762798045]}}, {"type": "Feature", "properties": {"norad_id": 35156, "name": "FENGYUN 1C DEB", "group": "fengyun-1c-debris", "lat": 58.2712970380273, "lon": -36.67692592273562, "alt_km": 844.8182922742508, "timestamp": "2025-12-17T10:52:54.640756+00:00", "meta": {"OBJECT_NAME": "FENGYUN 1C DEB", "OBJECT_ID": "1999-025DML", "EPOCH": "2025-12-12T16:32:42.860544", "MEAN_MOTION": 14.10626157, "ECCENTRICITY": 0.00370025, "INCLINATION": 98.7527, "RA_OF_ASC_NODE": 333.1123, "ARG_OF_PERICENTER": 148.5895, "MEAN_ANOMALY": 211.7497, "EPHEMERIS_TYPE": 0, "CLASSIFICATION_TYPE": "U", "NORAD_CAT_ID": 35156, "ELEMENT_SET_NO": 999, "REV_AT_EPOCH": 64043, "BSTAR": 0.00049181464, "MEAN_MOTION_DOT": 8.41e-06, "MEAN_MOTION_DDOT": 0}, "tle": {"line1": "1 35156U 99025DML 25346.68938496  .00000841  00000+0  49181-3 0  9996", "line2": "2 35156  98.7527 333.1123 0037002 148.5895 211.7497 14.10626157640439"}}, "geometry": {"type": "Point", "coordinates": [-36.67692592273562, 58.2712970380273]}}]}